{
  "type": "FeatureCollection",
  "features": [
    {
      "type": "Feature",
      "properties": {
        "id": "west-border-corridor",
        "name": "Western Border / Mae Sot Corridor",
        "status": "active",
        "priority": 3,
        "summary": "Cross-border spillover and logistics pressure belt centered on the Mae Sot-Myawaddy frontier.",
        "theaterId": "myanmar-frontier"
      },
      "geometry": {
        "type": "Polygon",
        "coordinates": [
          [
            [98.15, 17.15],
            [99.05, 17.15],
            [99.15, 16.1],
            [98.95, 15.65],
            [98.15, 15.65],
            [97.95, 16.25],
            [98.15, 17.15]
          ]
        ]
      }
    },
    {
      "type": "Feature",
      "properties": {
        "id": "northwest-frontier",
        "name": "Northwest Frontier Spillover",
        "status": "watch",
        "priority": 2,
        "summary": "Mae Hong Son frontier zone where spillover, movement, and access friction can expand quickly.",
        "theaterId": "myanmar-frontier"
      },
      "geometry": {
        "type": "Polygon",
        "coordinates": [
          [
            [97.3, 19.65],
            [98.85, 19.65],
            [98.9, 18.15],
            [98.15, 17.8],
            [97.35, 18.1],
            [97.1, 18.95],
            [97.3, 19.65]
          ]
        ]
      }
    },
    {
      "type": "Feature",
      "properties": {
        "id": "deep-south-belt",
        "name": "Deep South Security Belt",
        "status": "active",
        "priority": 3,
        "summary": "Persistent insurgency belt spanning Pattani, Yala, and Narathiwat with recurrent security incidents.",
        "theaterId": "deep-south"
      },
      "geometry": {
        "type": "Polygon",
        "coordinates": [
          [
            [100.65, 7.35],
            [102.35, 7.35],
            [102.2, 5.55],
            [101.25, 5.4],
            [100.65, 6.15],
            [100.65, 7.35]
          ]
        ]
      }
    },
    {
      "type": "Feature",
      "properties": {
        "id": "cambodia-scam-corridor",
        "name": "Cambodia Scam Economy Corridor",
        "status": "watch",
        "priority": 2,
        "summary": "Cross-border corridor spanning Aranyaprathet-Poipet and Sa Kaeo where scam compound operations, trafficking, and casino-linked migration create persistent security friction.",
        "theaterId": "cambodia-frontier"
      },
      "geometry": {
        "type": "Polygon",
        "coordinates": [
          [
            [101.8, 14.2],
            [103.0, 14.2],
            [103.0, 13.0],
            [102.0, 12.4],
            [101.8, 13.0],
            [101.8, 14.2]
          ]
        ]
      }
    }
  ]
}
